{
    "links": {
        "self": "http://www.neowsapp.com/rest/v1/neo/3991648?api_key=iIulBulltgU6a56xZRHN4H3l9WmuAYTsLGpBGhQ2"
    },
    "id": "3991648",
    "neo_reference_id": "3991648",
    "name": "(2020 DV)",
    "designation": "2020 DV",
    "nasa_jpl_url": "http://ssd.jpl.nasa.gov/sbdb.cgi?sstr=3991648",
    "absolute_magnitude_h": 26.706,
    "estimated_diameter": {
        "kilometers": {
            "estimated_diameter_min": 0.0121158804,
            "estimated_diameter_max": 0.0270919321
        },
        "meters": {
            "estimated_diameter_min": 12.1158803719,
            "estimated_diameter_max": 27.0919321189
        },
        "miles": {
            "estimated_diameter_min": 0.0075284567,
            "estimated_diameter_max": 0.016834141
        },
        "feet": {
            "estimated_diameter_min": 39.7502649595,
            "estimated_diameter_max": 88.884294573
        }
    },
    "is_potentially_hazardous_asteroid": false,
    "close_approach_data": [
        {
            "close_approach_date": "2020-02-07",
            "close_approach_date_full": "2020-Feb-07 14:35",
            "epoch_date_close_approach": 1581086100000,
            "relative_velocity": {
                "kilometers_per_second": "10.3280881679",
                "kilometers_per_hour": "37181.1174043853",
                "miles_per_hour": "23102.9004227415"
            },
            "miss_distance": {
                "astronomical": "0.0271755786",
                "lunar": "10.5713000754",
                "kilometers": "4065408.674577582",
                "miles": "2526127.8122793516"
            },
            "orbiting_body": "Earth"
        }
    ],
    "orbital_data": {
        "orbit_id": "4",
        "orbit_determination_date": "2020-04-09 06:22:24",
        "first_observation_date": "2020-02-16",
        "last_observation_date": "2020-02-20",
        "data_arc_in_days": 4,
        "observations_used": 22,
        "orbit_uncertainty": "8",
        "minimum_orbit_intersection": ".00188057",
        "jupiter_tisserand_invariant": "3.299",
        "epoch_osculation": "2458898.5",
        "eccentricity": ".5971304408243339",
        "semi_major_axis": "2.340106186747646",
        "inclination": ".3718393462803805",
        "ascending_node_longitude": "238.5310410971668",
        "orbital_period": "1307.530337018653",
        "perihelion_distance": ".9427575478792733",
        "perihelion_argument": "225.5829045370414",
        "aphelion_distance": "3.737454825616019",
        "perihelion_time": "2458862.088505088978",
        "mean_anomaly": "10.02511207338887",
        "mean_motion": ".2753282197802376",
        "equinox": "J2000",
        "orbit_class": {
            "orbit_class_type": "APO",
            "orbit_class_description": "Near-Earth asteroid orbits which cross the Earth’s orbit similar to that of 1862 Apollo",
            "orbit_class_range": "a (semi-major axis) > 1.0 AU; q (perihelion) < 1.017 AU"
        }
    },
    "is_sentry_object": false
}